[{"OBJECT_NAME":"STARLINK-36404","OBJECT_ID":"2026-022S","EPOCH":"2026-03-04T02:47:33.642240","MEAN_MOTION":15.75253123,"ECCENTRICITY":0.00015145,"INCLINATION":97.2831,"RA_OF_ASC_NODE":96.8479,"ARG_OF_PERICENTER":77.7975,"MEAN_ANOMALY":282.346,"EPHEMERIS_TYPE":0,"CLASSIFICATION_TYPE":"U","NORAD_CAT_ID":67664,"ELEMENT_SET_NO":999,"REV_AT_EPOCH":467,"BSTAR":0.00044917712,"MEAN_MOTION_DOT":0.00067585,"MEAN_MOTION_DDOT":0},{"OBJECT_NAME":"STARLINK-36399","OBJECT_ID":"2026-022T","EPOCH":"2026-03-04T01:15:03.684672","MEAN_MOTION":15.75321589,"ECCENTRICITY":0.00024965,"INCLINATION":97.2835,"RA_OF_ASC_NODE":96.7825,"ARG_OF_PERICENTER":146.7387,"MEAN_ANOMALY":213.4036,"EPHEMERIS_TYPE":0,"CLASSIFICATION_TYPE":"U","NORAD_CAT_ID":67665,"ELEMENT_SET_NO":999,"REV_AT_EPOCH":466,"BSTAR":0.0017377974,"MEAN_MOTION_DOT":0.00268939,"MEAN_MOTION_DDOT":0},{"OBJECT_NAME":"STARLINK-36365","OBJECT_ID":"2026-022U","EPOCH":"2026-03-04T01:13:02.047296","MEAN_MOTION":15.7527177,"ECCENTRICITY":0.00012427,"INCLINATION":97.2843,"RA_OF_ASC_NODE":96.7852,"ARG_OF_PERICENTER":111.684,"MEAN_ANOMALY":248.4558,"EPHEMERIS_TYPE":0,"CLASSIFICATION_TYPE":"U","NORAD_CAT_ID":67666,"ELEMENT_SET_NO":999,"REV_AT_EPOCH":466,"BSTAR":0.0013331077,"MEAN_MOTION_DOT":0.00204261,"MEAN_MOTION_DDOT":0},{"OBJECT_NAME":"STARLINK-36622","OBJECT_ID":"2026-022V","EPOCH":"2026-03-04T01:10:29.546112","MEAN_MOTION":15.75398908,"ECCENTRICITY":0.00019763,"INCLINATION":97.2837,"RA_OF_ASC_NODE":96.7873,"ARG_OF_PERICENTER":156.5347,"MEAN_ANOMALY":203.6009,"EPHEMERIS_TYPE":0,"CLASSIFICATION_TYPE":"U","NORAD_CAT_ID":67667,"ELEMENT_SET_NO":999,"REV_AT_EPOCH":466,"BSTAR":0.0028383491,"MEAN_MOTION_DOT":0.00450382,"MEAN_MOTION_DDOT":0},{"OBJECT_NAME":"STARLINK-36625","OBJECT_ID":"2026-022W","EPOCH":"2026-03-04T10:17:20.757408","MEAN_MOTION":15.75348374,"ECCENTRICITY":0.00019504,"INCLINATION":97.2834,"RA_OF_ASC_NODE":97.1888,"ARG_OF_PERICENTER":21.6123,"MEAN_ANOMALY":338.5225,"EPHEMERIS_TYPE":0,"CLASSIFICATION_TYPE":"U","NORAD_CAT_ID":67668,"ELEMENT_SET_NO":999,"REV_AT_EPOCH":472,"BSTAR":0.003136985,"MEAN_MOTION_DOT":0.00499616,"MEAN_MOTION_DDOT":0},{"OBJECT_NAME":"STARLINK-36639","OBJECT_ID":"2026-022X","EPOCH":"2026-03-04T01:05:55.137984","MEAN_MOTION":15.75413914,"ECCENTRICITY":0.00020149,"INCLINATION":97.2837,"RA_OF_ASC_NODE":96.7914,"ARG_OF_PERICENTER":147.8503,"MEAN_ANOMALY":212.2886,"EPHEMERIS_TYPE":0,"CLASSIFICATION_TYPE":"U","NORAD_CAT_ID":67669,"ELEMENT_SET_NO":999,"REV_AT_EPOCH":466,"BSTAR":0.0030622942,"MEAN_MOTION_DOT":0.00488447,"MEAN_MOTION_DDOT":0},{"OBJECT_NAME":"STARLINK-36596","OBJECT_ID":"2026-022Y","EPOCH":"2026-03-04T13:15:12.700512","MEAN_MOTION":15.75338893,"ECCENTRICITY":9.816e-5,"INCLINATION":97.283,"RA_OF_ASC_NODE":97.3266,"ARG_OF_PERICENTER":36.7043,"MEAN_ANOMALY":323.4289,"EPHEMERIS_TYPE":0,"CLASSIFICATION_TYPE":"U","NORAD_CAT_ID":67670,"ELEMENT_SET_NO":999,"REV_AT_EPOCH":474,"BSTAR":0.0018874597,"MEAN_MOTION_DOT":0.00293164,"MEAN_MOTION_DDOT":0},{"OBJECT_NAME":"STARLINK-36297","OBJECT_ID":"2026-022Z","EPOCH":"2026-03-04T01:00:19.716768","MEAN_MOTION":15.75348738,"ECCENTRICITY":8.093e-5,"INCLINATION":97.2837,"RA_OF_ASC_NODE":96.797,"ARG_OF_PERICENTER":158.5022,"MEAN_ANOMALY":201.6277,"EPHEMERIS_TYPE":0,"CLASSIFICATION_TYPE":"U","NORAD_CAT_ID":67671,"ELEMENT_SET_NO":999,"REV_AT_EPOCH":466,"BSTAR":0.0022646201,"MEAN_MOTION_DOT":0.00354498,"MEAN_MOTION_DDOT":0},{"OBJECT_NAME":"STARLINK-36616","OBJECT_ID":"2026-022AA","EPOCH":"2026-03-04T10:11:15.345024","MEAN_MOTION":15.75280254,"ECCENTRICITY":0.00011834,"INCLINATION":97.2833,"RA_OF_ASC_NODE":97.1947,"ARG_OF_PERICENTER":49.7325,"MEAN_ANOMALY":310.4043,"EPHEMERIS_TYPE":0,"CLASSIFICATION_TYPE":"U","NORAD_CAT_ID":67672,"ELEMENT_SET_NO":999,"REV_AT_EPOCH":472,"BSTAR":0.0024848684,"MEAN_MOTION_DOT":0.00389445,"MEAN_MOTION_DDOT":0},{"OBJECT_NAME":"COSMOS 2600","OBJECT_ID":"2026-023A","EPOCH":"2026-03-04T14:15:37.393920","MEAN_MOTION":15.83192314,"ECCENTRICITY":0.00022851,"INCLINATION":96.6437,"RA_OF_ASC_NODE":139.3985,"ARG_OF_PERICENTER":357.3768,"MEAN_ANOMALY":2.7491,"EPHEMERIS_TYPE":0,"CLASSIFICATION_TYPE":"U","NORAD_CAT_ID":67674,"ELEMENT_SET_NO":999,"REV_AT_EPOCH":424,"BSTAR":0.00040773273,"MEAN_MOTION_DOT":0.00087901,"MEAN_MOTION_DDOT":0},{"OBJECT_NAME":"2026-023B","OBJECT_ID":"2026-023B","EPOCH":"2026-03-04T09:33:11.899296","MEAN_MOTION":15.22849981,"ECCENTRICITY":0.00192324,"INCLINATION":96.6368,"RA_OF_ASC_NODE":136.9588,"ARG_OF_PERICENTER":149.866,"MEAN_ANOMALY":210.369,"EPHEMERIS_TYPE":0,"CLASSIFICATION_TYPE":"U","NORAD_CAT_ID":67675,"ELEMENT_SET_NO":999,"REV_AT_EPOCH":405,"BSTAR":0.00075835034,"MEAN_MOTION_DOT":0.00017809,"MEAN_MOTION_DDOT":0},{"OBJECT_NAME":"2026-023C","OBJECT_ID":"2026-023C","EPOCH":"2026-03-04T11:05:54.862656","MEAN_MOTION":15.22954337,"ECCENTRICITY":0.00202975,"INCLINATION":96.6403,"RA_OF_ASC_NODE":137.0391,"ARG_OF_PERICENTER":140.0758,"MEAN_ANOMALY":220.1978,"EPHEMERIS_TYPE":0,"CLASSIFICATION_TYPE":"U","NORAD_CAT_ID":67676,"ELEMENT_SET_NO":999,"REV_AT_EPOCH":422,"BSTAR":0.00077492623,"MEAN_MOTION_DOT":0.00018268,"MEAN_MOTION_DDOT":0},{"OBJECT_NAME":"2026-023D","OBJECT_ID":"2026-023D","EPOCH":"2026-03-04T11:09:29.614176","MEAN_MOTION":15.22772595,"ECCENTRICITY":0.00205127,"INCLINATION":96.6434,"RA_OF_ASC_NODE":137.0274,"ARG_OF_PERICENTER":144.9251,"MEAN_ANOMALY":215.3343,"EPHEMERIS_TYPE":0,"CLASSIFICATION_TYPE":"U","NORAD_CAT_ID":67677,"ELEMENT_SET_NO":999,"REV_AT_EPOCH":405,"BSTAR":0.00074038565,"MEAN_MOTION_DOT":0.00017357,"MEAN_MOTION_DDOT":0},{"OBJECT_NAME":"2026-023F","OBJECT_ID":"2026-023F","EPOCH":"2026-03-04T15:46:46.189920","MEAN_MOTION":15.23103327,"ECCENTRICITY":0.0022211,"INCLINATION":96.6334,"RA_OF_ASC_NODE":139.6828,"ARG_OF_PERICENTER":138.7205,"MEAN_ANOMALY":221.5719,"EPHEMERIS_TYPE":0,"CLASSIFICATION_TYPE":"U","NORAD_CAT_ID":67679,"ELEMENT_SET_NO":999,"REV_AT_EPOCH":407,"BSTAR":0.00080891708,"MEAN_MOTION_DOT":0.0001918,"MEAN_MOTION_DDOT":0}]
